{
  "norad_id": 37810,
  "name": "ARABSAT-5C",
  "history": [
    {
      "epoch": "2026-03-28T21:43:33.162816Z",
      "apogee_km": 35798.27510486593,
      "perigee_km": 35774.60981299881,
      "latitude_deg": 0.03263626447443369,
      "longitude_deg": 20.02298578815272,
      "height_km": 35797.184233737455,
      "semi_major_axis_km": 42164.57945893237,
      "eccentricity": 0.00028063,
      "inclination_deg": 0.0606,
      "raan_deg": 22.7005,
      "arg_perigee_deg": 348.3577,
      "mean_anomaly_deg": 161.1381,
      "mean_motion_rev_day": 1.00272329
    },
    {
      "epoch": "2026-03-29T01:08:50.897184Z",
      "apogee_km": 35798.24802145456,
      "perigee_km": 35774.602135041074,
      "latitude_deg": 0.005116541453294403,
      "longitude_deg": 19.99569886971432,
      "height_km": 35795.931138050306,
      "semi_major_axis_km": 42164.562078247814,
      "eccentricity": 0.0002804,
      "inclination_deg": 0.0608,
      "raan_deg": 23.2059,
      "arg_perigee_deg": 348.0797,
      "mean_anomaly_deg": 212.3756,
      "mean_motion_rev_day": 1.00272391
    },
    {
      "epoch": "2026-03-29T22:12:38.740032Z",
      "apogee_km": 35798.14905685959,
      "perigee_km": 35774.48636487586,
      "latitude_deg": 0.031835177115990515,
      "longitude_deg": 20.021351883598978,
      "height_km": 35797.448533590585,
      "semi_major_axis_km": 42164.45471086773,
      "eccentricity": 0.0002806,
      "inclination_deg": 0.062,
      "raan_deg": 25.1956,
      "arg_perigee_deg": 347.0152,
      "mean_anomaly_deg": 168.2676,
      "mean_motion_rev_day": 1.00272774
    },
    {
      "epoch": "2026-03-29T22:12:38.740896Z",
      "apogee_km": 35798.14779192595,
      "perigee_km": 35774.4876298095,
      "latitude_deg": 0.03183517736938918,
      "longitude_deg": 20.02134757910795,
      "height_km": 35797.44728861481,
      "semi_major_axis_km": 42164.45471086773,
      "eccentricity": 0.00028057,
      "inclination_deg": 0.062,
      "raan_deg": 25.1956,
      "arg_perigee_deg": 347.0152,
      "mean_anomaly_deg": 168.2676,
      "mean_motion_rev_day": 1.00272774
    },
    {
      "epoch": "2026-03-30T07:57:07.295616Z",
      "apogee_km": 35798.18467005692,
      "perigee_km": 35774.06165353315,
      "latitude_deg": -0.019023606605501033,
      "longitude_deg": 19.975796697599886,
      "height_km": 35779.67708631242,
      "semi_major_axis_km": 42164.260161795035,
      "eccentricity": 0.00028606,
      "inclination_deg": 0.0518,
      "raan_deg": 17.6727,
      "arg_perigee_deg": 10.1675,
      "mean_anomaly_deg": 299.1476,
      "mean_motion_rev_day": 1.00273468
    },
    {
      "epoch": "2026-03-30T21:38:40.466400Z",
      "apogee_km": 35797.67872525033,
      "perigee_km": 35773.747367241085,
      "latitude_deg": -0.0011182563226828778,
      "longitude_deg": 19.998110466520387,
      "height_km": 35794.70694605921,
      "semi_major_axis_km": 42163.85004624571,
      "eccentricity": 0.00028379,
      "inclination_deg": 0.0309,
      "raan_deg": 12.1649,
      "arg_perigee_deg": 18.6893,
      "mean_anomaly_deg": 142.0592,
      "mean_motion_rev_day": 1.00274931
    },
    {
      "epoch": "2026-03-31T19:53:32.114688Z",
      "apogee_km": 35797.25841057462,
      "perigee_km": 35775.257029409724,
      "latitude_deg": -0.01595988026391345,
      "longitude_deg": 20.040839827525915,
      "height_km": 35792.972196494105,
      "semi_major_axis_km": 42164.394719992175,
      "eccentricity": 0.0002609,
      "inclination_deg": 0.0563,
      "raan_deg": 359.6645,
      "arg_perigee_deg": 17.2801,
      "mean_anomaly_deg": 130.6401,
      "mean_motion_rev_day": 1.00272988
    },
    {
      "epoch": "2026-04-01T16:25:39.849600Z",
      "apogee_km": 35797.19823817125,
      "perigee_km": 35775.10415115725,
      "latitude_deg": 0.015314733346994791,
      "longitude_deg": 20.049483612737717,
      "height_km": 35783.49313542417,
      "semi_major_axis_km": 42164.28819466425,
      "eccentricity": 0.000262,
      "inclination_deg": 0.0577,
      "raan_deg": 2.5488,
      "arg_perigee_deg": 15.1892,
      "mean_anomaly_deg": 78.7268,
      "mean_motion_rev_day": 1.00273368
    },
    {
      "epoch": "2026-04-02T19:48:35.188128Z",
      "apogee_km": 35798.63341820458,
      "perigee_km": 35775.5943251283,
      "latitude_deg": -0.005044532137498805,
      "longitude_deg": 20.024229561853183,
      "height_km": 35794.7374240028,
      "semi_major_axis_km": 42165.250871666445,
      "eccentricity": 0.0002732,
      "inclination_deg": 0.0588,
      "raan_deg": 6.218,
      "arg_perigee_deg": 7.5279,
      "mean_anomaly_deg": 134.5594,
      "mean_motion_rev_day": 1.00269934
    },
    {
      "epoch": "2026-04-02T21:31:10.350048Z",
      "apogee_km": 35798.66731815408,
      "perigee_km": 35775.53799759215,
      "latitude_deg": -0.018371169136747006,
      "longitude_deg": 20.011805621821,
      "height_km": 35797.54624297447,
      "semi_major_axis_km": 42165.23965787312,
      "eccentricity": 0.00027427,
      "inclination_deg": 0.059,
      "raan_deg": 6.3711,
      "arg_perigee_deg": 7.3185,
      "mean_anomaly_deg": 160.332,
      "mean_motion_rev_day": 1.00269974
    },
    {
      "epoch": "2026-04-03T19:46:07.279104Z",
      "apogee_km": 35798.5496643217,
      "perigee_km": 35775.434740492936,
      "latitude_deg": -0.00794641587524554,
      "longitude_deg": 20.01599276133826,
      "height_km": 35794.61670932878,
      "semi_major_axis_km": 42165.12920240732,
      "eccentricity": 0.0002741,
      "inclination_deg": 0.055,
      "raan_deg": 6.6489,
      "arg_perigee_deg": 7.6088,
      "mean_anomaly_deg": 134.4095,
      "mean_motion_rev_day": 1.00270368
    },
    {
      "epoch": "2026-04-04T04:39:38.850624Z",
      "apogee_km": 35798.578454877585,
      "perigee_km": 35775.192890003,
      "latitude_deg": -0.0288374603984497,
      "longitude_deg": 19.953290693405688,
      "height_km": 35787.20162093562,
      "semi_major_axis_km": 42165.0226724403,
      "eccentricity": 0.00027731,
      "inclination_deg": 0.0559,
      "raan_deg": 22.1436,
      "arg_perigee_deg": 354.279,
      "mean_anomaly_deg": 265.9839,
      "mean_motion_rev_day": 1.00270748
    },
    {
      "epoch": "2026-04-05T12:50:24.431136Z",
      "apogee_km": 35798.05187944286,
      "perigee_km": 35774.172578534504,
      "latitude_deg": 0.0027768840172798888,
      "longitude_deg": 19.954928390199786,
      "height_km": 35774.03608366229,
      "semi_major_axis_km": 42164.24922898868,
      "eccentricity": 0.00028317,
      "inclination_deg": 0.0401,
      "raan_deg": 27.9394,
      "arg_perigee_deg": 3.2794,
      "mean_anomaly_deg": 15.1627,
      "mean_motion_rev_day": 1.00273507
    },
    {
      "epoch": "2026-04-05T19:41:11.237280Z",
      "apogee_km": 35798.309729263136,
      "perigee_km": 35775.1106303448,
      "latitude_deg": 0.021404767549015994,
      "longitude_deg": 20.004519144300428,
      "height_km": 35792.99369538979,
      "semi_major_axis_km": 42164.84717980397,
      "eccentricity": 0.0002751,
      "inclination_deg": 0.0583,
      "raan_deg": 24.1821,
      "arg_perigee_deg": 359.6104,
      "mean_anomaly_deg": 125.598,
      "mean_motion_rev_day": 1.00271374
    },
    {
      "epoch": "2026-04-06T04:34:38.924256Z",
      "apogee_km": 35798.28622158107,
      "perigee_km": 35775.0483546418,
      "latitude_deg": -0.036995228617468005,
      "longitude_deg": 19.94699355914889,
      "height_km": 35788.34429611271,
      "semi_major_axis_km": 42164.80428811144,
      "eccentricity": 0.00027556,
      "inclination_deg": 0.0586,
      "raan_deg": 24.7593,
      "arg_perigee_deg": 359.1759,
      "mean_anomaly_deg": 259.1856,
      "mean_motion_rev_day": 1.00271527
    },
    {
      "epoch": "2026-04-07T20:40:35.666688Z",
      "apogee_km": 35798.060410995415,
      "perigee_km": 35774.88674102284,
      "latitude_deg": 0.020727966510739656,
      "longitude_deg": 19.99752163332095,
      "height_km": 35795.06541051871,
      "semi_major_axis_km": 42164.61057600913,
      "eccentricity": 0.0002748,
      "inclination_deg": 0.0608,
      "raan_deg": 26.1963,
      "arg_perigee_deg": 358.6321,
      "mean_anomaly_deg": 141.4265,
      "mean_motion_rev_day": 1.00272218
    },
    {
      "epoch": "2026-04-08T00:44:16.507104Z",
      "apogee_km": 35798.05006460049,
      "perigee_km": 35774.85279463005,
      "latitude_deg": -0.020617632209104834,
      "longitude_deg": 19.965993168690805,
      "height_km": 35796.72409028006,
      "semi_major_axis_km": 42164.58842961527,
      "eccentricity": 0.00027508,
      "inclination_deg": 0.0608,
      "raan_deg": 26.9585,
      "arg_perigee_deg": 358.1863,
      "mean_anomaly_deg": 202.1973,
      "mean_motion_rev_day": 1.00272297
    },
    {
      "epoch": "2026-04-09T20:37:38.885376Z",
      "apogee_km": 35797.78831089982,
      "perigee_km": 35774.69909602661,
      "latitude_deg": 0.020830138124319244,
      "longitude_deg": 20.003008259727928,
      "height_km": 35794.93250331336,
      "semi_major_axis_km": 42164.38070346322,
      "eccentricity": 0.0002738,
      "inclination_deg": 0.0605,
      "raan_deg": 24.0986,
      "arg_perigee_deg": 0.9088,
      "mean_anomaly_deg": 142.4872,
      "mean_motion_rev_day": 1.00273038
    },
    {
      "epoch": "2026-04-10T12:37:55.013088Z",
      "apogee_km": 35797.69573539907,
      "perigee_km": 35774.64029341719,
      "latitude_deg": 0.02064795237383963,
      "longitude_deg": 19.9996572100423,
      "height_km": 35775.039179076084,
      "semi_major_axis_km": 42164.305014408135,
      "eccentricity": 0.0002734,
      "inclination_deg": 0.0632,
      "raan_deg": 25.2335,
      "arg_perigee_deg": 359.6104,
      "mean_anomaly_deg": 23.379,
      "mean_motion_rev_day": 1.00273308
    }
  ]
}